[{"OBJECT_NAME":"STARLINK-4060","OBJECT_ID":"2022-086AB","EPOCH":"2025-11-20T05:19:53.563008","MEAN_MOTION":15.08837946,"ECCENTRICITY":0.00014258,"INCLINATION":53.2185,"RA_OF_ASC_NODE":325.5383,"ARG_OF_PERICENTER":89.4144,"MEAN_ANOMALY":270.7012,"EPHEMERIS_TYPE":0,"CLASSIFICATION_TYPE":"U","NORAD_CAT_ID":53267,"ELEMENT_SET_NO":999,"REV_AT_EPOCH":18454,"BSTAR":2.7136891e-5,"MEAN_MOTION_DOT":1.44e-6,"MEAN_MOTION_DDOT":0},{"OBJECT_NAME":"STARLINK-4109","OBJECT_ID":"2022-086AC","EPOCH":"2025-11-20T07:00:34.729632","MEAN_MOTION":15.08837384,"ECCENTRICITY":0.00014088,"INCLINATION":53.2181,"RA_OF_ASC_NODE":325.2232,"ARG_OF_PERICENTER":91.0862,"MEAN_ANOMALY":269.0292,"EPHEMERIS_TYPE":0,"CLASSIFICATION_TYPE":"U","NORAD_CAT_ID":53268,"ELEMENT_SET_NO":999,"REV_AT_EPOCH":18455,"BSTAR":2.8841302e-5,"MEAN_MOTION_DOT":1.71e-6,"MEAN_MOTION_DDOT":0},{"OBJECT_NAME":"STARLINK-4057","OBJECT_ID":"2022-086AD","EPOCH":"2025-11-20T06:46:00.746976","MEAN_MOTION":15.08832612,"ECCENTRICITY":0.00014123,"INCLINATION":53.2189,"RA_OF_ASC_NODE":315.2704,"ARG_OF_PERICENTER":98.2913,"MEAN_ANOMALY":261.8239,"EPHEMERIS_TYPE":0,"CLASSIFICATION_TYPE":"U","NORAD_CAT_ID":53269,"ELEMENT_SET_NO":999,"REV_AT_EPOCH":18468,"BSTAR":1.213475e-5,"MEAN_MOTION_DOT":-9.5e-7,"MEAN_MOTION_DDOT":0},{"OBJECT_NAME":"STARLINK-4122","OBJECT_ID":"2022-086AG","EPOCH":"2025-11-20T06:51:18.556416","MEAN_MOTION":15.08835074,"ECCENTRICITY":0.00011935,"INCLINATION":53.2179,"RA_OF_ASC_NODE":315.2548,"ARG_OF_PERICENTER":92.7947,"MEAN_ANOMALY":267.3181,"EPHEMERIS_TYPE":0,"CLASSIFICATION_TYPE":"U","NORAD_CAT_ID":53272,"ELEMENT_SET_NO":999,"REV_AT_EPOCH":18468,"BSTAR":5.7321826e-5,"MEAN_MOTION_DOT":6.24e-6,"MEAN_MOTION_DDOT":0},{"OBJECT_NAME":"STARLINK-4051","OBJECT_ID":"2022-086AH","EPOCH":"2025-11-20T06:24:48.786912","MEAN_MOTION":15.08829817,"ECCENTRICITY":0.00013314,"INCLINATION":53.2167,"RA_OF_ASC_NODE":315.3359,"ARG_OF_PERICENTER":86.3367,"MEAN_ANOMALY":273.7778,"EPHEMERIS_TYPE":0,"CLASSIFICATION_TYPE":"U","NORAD_CAT_ID":53273,"ELEMENT_SET_NO":999,"REV_AT_EPOCH":18467,"BSTAR":0.00034850501,"MEAN_MOTION_DOT":5.261e-5,"MEAN_MOTION_DDOT":0},{"OBJECT_NAME":"STARLINK-4050","OBJECT_ID":"2022-086AJ","EPOCH":"2025-11-20T06:40:42.579840","MEAN_MOTION":15.08834979,"ECCENTRICITY":0.00014044,"INCLINATION":53.219,"RA_OF_ASC_NODE":315.2869,"ARG_OF_PERICENTER":94.2938,"MEAN_ANOMALY":265.8215,"EPHEMERIS_TYPE":0,"CLASSIFICATION_TYPE":"U","NORAD_CAT_ID":53274,"ELEMENT_SET_NO":999,"REV_AT_EPOCH":18468,"BSTAR":6.3881534e-5,"MEAN_MOTION_DOT":7.29e-6,"MEAN_MOTION_DDOT":0},{"OBJECT_NAME":"STARLINK-4179","OBJECT_ID":"2022-086AK","EPOCH":"2025-11-20T06:19:31.456128","MEAN_MOTION":15.08828856,"ECCENTRICITY":0.00014808,"INCLINATION":53.2183,"RA_OF_ASC_NODE":315.3519,"ARG_OF_PERICENTER":97.8624,"MEAN_ANOMALY":262.2537,"EPHEMERIS_TYPE":0,"CLASSIFICATION_TYPE":"U","NORAD_CAT_ID":53275,"ELEMENT_SET_NO":999,"REV_AT_EPOCH":18467,"BSTAR":-1.0740418e-5,"MEAN_MOTION_DOT":-4.59e-6,"MEAN_MOTION_DDOT":0},{"OBJECT_NAME":"STARLINK-4174","OBJECT_ID":"2022-086AL","EPOCH":"2025-11-20T04:54:43.215840","MEAN_MOTION":15.08836328,"ECCENTRICITY":0.00015424,"INCLINATION":53.2175,"RA_OF_ASC_NODE":315.6159,"ARG_OF_PERICENTER":87.8594,"MEAN_ANOMALY":272.2575,"EPHEMERIS_TYPE":0,"CLASSIFICATION_TYPE":"U","NORAD_CAT_ID":53276,"ELEMENT_SET_NO":999,"REV_AT_EPOCH":18466,"BSTAR":5.3523116e-5,"MEAN_MOTION_DOT":5.64e-6,"MEAN_MOTION_DDOT":0},{"OBJECT_NAME":"STARLINK-4178","OBJECT_ID":"2022-086AM","EPOCH":"2025-11-20T06:08:54.950784","MEAN_MOTION":15.08828457,"ECCENTRICITY":0.00012477,"INCLINATION":53.2182,"RA_OF_ASC_NODE":315.415,"ARG_OF_PERICENTER":85.2223,"MEAN_ANOMALY":274.8912,"EPHEMERIS_TYPE":0,"CLASSIFICATION_TYPE":"U","NORAD_CAT_ID":53277,"ELEMENT_SET_NO":999,"REV_AT_EPOCH":18467,"BSTAR":-4.5332004e-5,"MEAN_MOTION_DOT":-1.009e-5,"MEAN_MOTION_DDOT":0},{"OBJECT_NAME":"STARLINK-4180","OBJECT_ID":"2022-086AN","EPOCH":"2025-11-20T06:14:12.584832","MEAN_MOTION":15.08838011,"ECCENTRICITY":0.0001421,"INCLINATION":53.2168,"RA_OF_ASC_NODE":315.3703,"ARG_OF_PERICENTER":92.1108,"MEAN_ANOMALY":268.0047,"EPHEMERIS_TYPE":0,"CLASSIFICATION_TYPE":"U","NORAD_CAT_ID":53278,"ELEMENT_SET_NO":999,"REV_AT_EPOCH":18467,"BSTAR":6.3796066e-5,"MEAN_MOTION_DOT":7.27e-6,"MEAN_MOTION_DDOT":0},{"OBJECT_NAME":"STARLINK-4169","OBJECT_ID":"2022-086AQ","EPOCH":"2025-11-20T04:20:53.315232","MEAN_MOTION":15.08839804,"ECCENTRICITY":0.00013175,"INCLINATION":53.2167,"RA_OF_ASC_NODE":270.3948,"ARG_OF_PERICENTER":92.6824,"MEAN_ANOMALY":267.4319,"EPHEMERIS_TYPE":0,"CLASSIFICATION_TYPE":"U","NORAD_CAT_ID":53280,"ELEMENT_SET_NO":999,"REV_AT_EPOCH":18530,"BSTAR":0.00013161099,"MEAN_MOTION_DOT":1.807e-5,"MEAN_MOTION_DDOT":0},{"OBJECT_NAME":"STARLINK-4164","OBJECT_ID":"2022-086AS","EPOCH":"2025-11-20T06:03:37.024704","MEAN_MOTION":15.08839192,"ECCENTRICITY":0.00013216,"INCLINATION":53.2169,"RA_OF_ASC_NODE":315.4032,"ARG_OF_PERICENTER":87.5063,"MEAN_ANOMALY":272.608,"EPHEMERIS_TYPE":0,"CLASSIFICATION_TYPE":"U","NORAD_CAT_ID":53282,"ELEMENT_SET_NO":999,"REV_AT_EPOCH":18467,"BSTAR":0.00018394354,"MEAN_MOTION_DOT":2.641e-5,"MEAN_MOTION_DDOT":0},{"OBJECT_NAME":"STARLINK-4175","OBJECT_ID":"2022-086AT","EPOCH":"2025-11-20T05:47:42.809280","MEAN_MOTION":15.08849397,"ECCENTRICITY":0.00013464,"INCLINATION":53.2174,"RA_OF_ASC_NODE":315.4513,"ARG_OF_PERICENTER":94.5046,"MEAN_ANOMALY":265.61,"EPHEMERIS_TYPE":0,"CLASSIFICATION_TYPE":"U","NORAD_CAT_ID":53283,"ELEMENT_SET_NO":999,"REV_AT_EPOCH":18467,"BSTAR":0.00034118587,"MEAN_MOTION_DOT":5.148e-5,"MEAN_MOTION_DDOT":0},{"OBJECT_NAME":"STARLINK-4173","OBJECT_ID":"2022-086AV","EPOCH":"2025-11-20T07:07:12.125568","MEAN_MOTION":15.08846458,"ECCENTRICITY":0.00013231,"INCLINATION":53.2164,"RA_OF_ASC_NODE":315.2044,"ARG_OF_PERICENTER":83.6777,"MEAN_ANOMALY":276.4366,"EPHEMERIS_TYPE":0,"CLASSIFICATION_TYPE":"U","NORAD_CAT_ID":53285,"ELEMENT_SET_NO":999,"REV_AT_EPOCH":18467,"BSTAR":-0.00013360375,"MEAN_MOTION_DOT":-2.414e-5,"MEAN_MOTION_DDOT":0},{"OBJECT_NAME":"STARLINK-4165","OBJECT_ID":"2022-086AW","EPOCH":"2025-11-20T06:35:20.975712","MEAN_MOTION":15.08841677,"ECCENTRICITY":0.00011917,"INCLINATION":53.2174,"RA_OF_ASC_NODE":314.9959,"ARG_OF_PERICENTER":88.8756,"MEAN_ANOMALY":271.2373,"EPHEMERIS_TYPE":0,"CLASSIFICATION_TYPE":"U","NORAD_CAT_ID":53286,"ELEMENT_SET_NO":999,"REV_AT_EPOCH":18467,"BSTAR":8.9920982e-5,"MEAN_MOTION_DOT":1.144e-5,"MEAN_MOTION_DDOT":0},{"OBJECT_NAME":"STARLINK-4107","OBJECT_ID":"2022-086AX","EPOCH":"2025-11-20T05:21:14.393664","MEAN_MOTION":15.08831857,"ECCENTRICITY":0.0001591,"INCLINATION":53.2192,"RA_OF_ASC_NODE":315.535,"ARG_OF_PERICENTER":90.1435,"MEAN_ANOMALY":269.9739,"EPHEMERIS_TYPE":0,"CLASSIFICATION_TYPE":"U","NORAD_CAT_ID":53287,"ELEMENT_SET_NO":999,"REV_AT_EPOCH":18466,"BSTAR":0.00049381332,"MEAN_MOTION_DOT":7.578e-5,"MEAN_MOTION_DDOT":0}]
