STARLINK-4060           
1 53267U 22086AB  25324.22214772  .00000144  00000+0  27137-4 0  9996
2 53267  53.2185 325.5383 0001425  89.4144 270.7012 15.08837946184542
STARLINK-4109           
1 53268U 22086AC  25324.29206863  .00000171  00000+0  28841-4 0  9999
2 53268  53.2181 325.2232 0001408  91.0862 269.0292 15.08837384184554
STARLINK-4057           
1 53269U 22086AD  25324.28195309 -.00000095  00000+0  12135-4 0  9996
2 53269  53.2189 315.2704 0001412  98.2913 261.8239 15.08832612184681
STARLINK-4122           
1 53272U 22086AG  25324.28563144  .00000624  00000+0  57322-4 0  9990
2 53272  53.2179 315.2548 0001193  92.7947 267.3181 15.08835074184684
STARLINK-4051           
1 53273U 22086AH  25324.26723133  .00005261  00000+0  34851-3 0  9998
2 53273  53.2167 315.3359 0001331  86.3367 273.7778 15.08829817184672
STARLINK-4050           
1 53274U 22086AJ  25324.27827060  .00000729  00000+0  63882-4 0  9995
2 53274  53.2190 315.2869 0001404  94.2938 265.8215 15.08834979184681
STARLINK-4179           
1 53275U 22086AK  25324.26355852 -.00000459  00000+0 -10740-4 0  9997
2 53275  53.2183 315.3519 0001480  97.8624 262.2537 15.08828856184676
STARLINK-4174           
1 53276U 22086AL  25324.20466685  .00000564  00000+0  53523-4 0  9990
2 53276  53.2175 315.6159 0001542  87.8594 272.2575 15.08836328184660
STARLINK-4178           
1 53277U 22086AM  25324.25619156 -.00001009  00000+0 -45332-4 0  9995
2 53277  53.2182 315.4150 0001247  85.2223 274.8912 15.08828457184679
STARLINK-4180           
1 53278U 22086AN  25324.25986788  .00000727  00000+0  63796-4 0  9992
2 53278  53.2168 315.3703 0001421  92.1108 268.0047 15.08838011184671
STARLINK-4169           
1 53280U 22086AQ  25324.18117263  .00001807  00000+0  13161-3 0  9991
2 53280  53.2167 270.3948 0001317  92.6824 267.4319 15.08839804185305
STARLINK-4164           
1 53282U 22086AS  25324.25251186  .00002641  00000+0  18394-3 0  9994
2 53282  53.2169 315.4032 0001321  87.5063 272.6080 15.08839192184679
STARLINK-4175           
1 53283U 22086AT  25324.24146770  .00005148  00000+0  34119-3 0  9994
2 53283  53.2174 315.4513 0001346  94.5046 265.6100 15.08849397184679
STARLINK-4173           
1 53285U 22086AV  25324.29666812 -.00002414  00000+0 -13360-3 0  9995
2 53285  53.2164 315.2044 0001323  83.6777 276.4366 15.08846458184671
STARLINK-4165           
1 53286U 22086AW  25324.27454833  .00001144  00000+0  89921-4 0  9996
2 53286  53.2174 314.9959 0001191  88.8756 271.2373 15.08841677184670
STARLINK-4107           
1 53287U 22086AX  25324.22308326  .00007578  00000+0  49381-3 0  9999
2 53287  53.2192 315.5350 0001591  90.1435 269.9739 15.08831857184665
